{
"type": "FeatureCollection",
"name": "sql_statement",
"crs": { "type": "name", "properties": { "name": "urn:ogc:def:crs:OGC:1.3:CRS84" } },
"features": [
{ "type": "Feature", "properties": { "name_en": "Zenda" }, "geometry": { "type": "Point", "coordinates": [ -80.737191807833142, 42.98939770309071 ] } },
{ "type": "Feature", "properties": { "name_en": "Curries" }, "geometry": { "type": "Point", "coordinates": [ -80.720521209547854, 43.071300118473125 ] } },
{ "type": "Feature", "properties": { "name_en": "Sweaburg" }, "geometry": { "type": "Point", "coordinates": [ -80.759614121552417, 43.067239415953274 ] } },
{ "type": "Feature", "properties": { "name_en": "Charing Cross" }, "geometry": { "type": "Point", "coordinates": [ -82.097074278045469, 42.332675822214782 ] } },
{ "type": "Feature", "properties": { "name_en": "Beechwood" }, "geometry": { "type": "Point", "coordinates": [ -81.905003930649571, 42.47806375736026 ] } },
{ "type": "Feature", "properties": { "name_en": "Ringold" }, "geometry": { "type": "Point", "coordinates": [ -82.284448437651008, 42.348619316256404 ] } },
{ "type": "Feature", "properties": { "name_en": "Selton" }, "geometry": { "type": "Point", "coordinates": [ -81.942503944913312, 42.508063760983937 ] } },
{ "type": "Feature", "properties": { "name_en": "Wilsonwood" }, "geometry": { "type": "Point", "coordinates": [ -82.166401505003662, 42.395754230292788 ] } },
{ "type": "Feature", "properties": { "name_en": "Louisville" }, "geometry": { "type": "Point", "coordinates": [ -82.118336797066632, 42.477420847211114 ] } },
{ "type": "Feature", "properties": { "name_en": "North Buxton" }, "geometry": { "type": "Point", "coordinates": [ -82.226880716534481, 42.310892712190729 ] } },
{ "type": "Feature", "properties": { "name_en": "Mull" }, "geometry": { "type": "Point", "coordinates": [ -81.987993849771286, 42.399183339296634 ] } },
{ "type": "Feature", "properties": { "name_en": "Prairie Siding" }, "geometry": { "type": "Point", "coordinates": [ -82.324979450138287, 42.347438414128227 ] } },
{ "type": "Feature", "properties": { "name_en": "Chatham-Kent" }, "geometry": { "type": "Point", "coordinates": [ -82.189402212853111, 42.403859030663014 ] } },
{ "type": "Feature", "properties": { "name_en": "Dealtown" }, "geometry": { "type": "Point", "coordinates": [ -82.106385673998417, 42.251078707077262 ] } },
{ "type": "Feature", "properties": { "name_en": "Bagnall" }, "geometry": { "type": "Point", "coordinates": [ -82.359485960757567, 42.346330612296171 ] } },
{ "type": "Feature", "properties": { "name_en": "Ridgetown" }, "geometry": { "type": "Point", "coordinates": [ -81.887074621741505, 42.439221551221934 ] } },
{ "type": "Feature", "properties": { "name_en": "Wardsville" }, "geometry": { "type": "Point", "coordinates": [ -81.75541329915059, 42.65525999613218 ] } },
{ "type": "Feature", "properties": { "name_en": "Chatham" }, "geometry": { "type": "Point", "coordinates": [ -82.191081913724034, 42.407915231311804 ] } },
{ "type": "Feature", "properties": { "name_en": "Crinan" }, "geometry": { "type": "Point", "coordinates": [ -81.664232070071037, 42.648684299225735 ] } },
{ "type": "Feature", "properties": { "name_en": "Van Horne" }, "geometry": { "type": "Point", "coordinates": [ -82.103982289208332, 42.438005240818931 ] } },
{ "type": "Feature", "properties": { "name_en": "Botany" }, "geometry": { "type": "Point", "coordinates": [ -81.983706056383298, 42.492041956174049 ] } },
{ "type": "Feature", "properties": { "name_en": "Pinehurst" }, "geometry": { "type": "Point", "coordinates": [ -82.031158965438792, 42.425215341948999 ] } },
{ "type": "Feature", "properties": { "name_en": "North Thamesville" }, "geometry": { "type": "Point", "coordinates": [ -81.99608606651789, 42.564963068657129 ] } },
{ "type": "Feature", "properties": { "name_en": "Tilbury Station" }, "geometry": { "type": "Point", "coordinates": [ -82.431044577109589, 42.278248296677475 ] } },
{ "type": "Feature", "properties": { "name_en": "Port Crewe" }, "geometry": { "type": "Point", "coordinates": [ -82.208070800834633, 42.195144092218996 ] } },
{ "type": "Feature", "properties": { "name_en": "Clachan" }, "geometry": { "type": "Point", "coordinates": [ -81.800208406674841, 42.579948180547447 ] } },
{ "type": "Feature", "properties": { "name_en": "Stevenson" }, "geometry": { "type": "Point", "coordinates": [ -82.322084335717392, 42.189349185816162 ] } },
{ "type": "Feature", "properties": { "name_en": "Arkwood" }, "geometry": { "type": "Point", "coordinates": [ -82.12217389852897, 42.480527947586928 ] } },
{ "type": "Feature", "properties": { "name_en": "Northwood" }, "geometry": { "type": "Point", "coordinates": [ -82.053444777851837, 42.488984552343737 ] } },
{ "type": "Feature", "properties": { "name_en": "Kintyre" }, "geometry": { "type": "Point", "coordinates": [ -81.756194992665854, 42.576910882064276 ] } },
{ "type": "Feature", "properties": { "name_en": "Kent Bridge" }, "geometry": { "type": "Point", "coordinates": [ -82.072515186006228, 42.5146886560509 ] } },
{ "type": "Feature", "properties": { "name_en": "Doyles" }, "geometry": { "type": "Point", "coordinates": [ -82.166642899925264, 42.335581519467709 ] } },
{ "type": "Feature", "properties": { "name_en": "Riverside Trailer Park" }, "geometry": { "type": "Point", "coordinates": [ -82.150684003156925, 42.431185337393629 ] } },
{ "type": "Feature", "properties": { "name_en": "Fargo" }, "geometry": { "type": "Point", "coordinates": [ -82.068412371065889, 42.355376427645027 ] } },
{ "type": "Feature", "properties": { "name_en": "Turin" }, "geometry": { "type": "Point", "coordinates": [ -81.87328392471521, 42.52430686714608 ] } },
{ "type": "Feature", "properties": { "name_en": "Bradley" }, "geometry": { "type": "Point", "coordinates": [ -82.412942576902807, 42.341129508829319 ] } },
{ "type": "Feature", "properties": { "name_en": "Huffman Corners" }, "geometry": { "type": "Point", "coordinates": [ -82.050968867456277, 42.376680432295721 ] } },
{ "type": "Feature", "properties": { "name_en": "Thamesville" }, "geometry": { "type": "Point", "coordinates": [ -81.977158559475342, 42.551741167181632 ] } },
{ "type": "Feature", "properties": { "name_en": "Valetta" }, "geometry": { "type": "Point", "coordinates": [ -82.334434444731798, 42.250124996184887 ] } },
{ "type": "Feature", "properties": { "name_en": "Ferndell" }, "geometry": { "type": "Point", "coordinates": [ -81.679588972496717, 42.620962993542399 ] } },
{ "type": "Feature", "properties": { "name_en": "Sandison" }, "geometry": { "type": "Point", "coordinates": [ -82.123330180413745, 42.264612608723439 ] } },
{ "type": "Feature", "properties": { "name_en": "Tilbury" }, "geometry": { "type": "Point", "coordinates": [ -82.432208775844771, 42.259304193216344 ] } },
{ "type": "Feature", "properties": { "name_en": "Moraviantown" }, "geometry": { "type": "Point", "coordinates": [ -81.89318143583499, 42.581474976457102 ] } },
{ "type": "Feature", "properties": { "name_en": "McKay's Corners" }, "geometry": { "type": "Point", "coordinates": [ -81.992932055764669, 42.451293548427998 ] } },
{ "type": "Feature", "properties": { "name_en": "Highgate" }, "geometry": { "type": "Point", "coordinates": [ -81.818463005746395, 42.502548365809119 ] } },
{ "type": "Feature", "properties": { "name_en": "Muirkirk" }, "geometry": { "type": "Point", "coordinates": [ -81.774000392979715, 42.515567870225865 ] } },
{ "type": "Feature", "properties": { "name_en": "Merlin" }, "geometry": { "type": "Point", "coordinates": [ -82.231310911945826, 42.240990699396015 ] } },
{ "type": "Feature", "properties": { "name_en": "Jeannettes Creek" }, "geometry": { "type": "Point", "coordinates": [ -82.421244977249444, 42.315236503787226 ] } },
{ "type": "Feature", "properties": { "name_en": "Oriole Parkway" }, "geometry": { "type": "Point", "coordinates": [ -82.216833019295791, 42.379563525006716 ] } },
{ "type": "Feature", "properties": { "name_en": "Glenwood" }, "geometry": { "type": "Point", "coordinates": [ -82.281101124613073, 42.208255891153819 ] } },
{ "type": "Feature", "properties": { "name_en": "Jeannette" }, "geometry": { "type": "Point", "coordinates": [ -82.365360358778119, 42.302080304069612 ] } },
{ "type": "Feature", "properties": { "name_en": "Vosburg" }, "geometry": { "type": "Point", "coordinates": [ -82.111453092195319, 42.445705441848496 ] } },
{ "type": "Feature", "properties": { "name_en": "Rhodes" }, "geometry": { "type": "Point", "coordinates": [ -82.228325419251902, 42.337399416889205 ] } },
{ "type": "Feature", "properties": { "name_en": "Blenheim Junction" }, "geometry": { "type": "Point", "coordinates": [ -82.010359650577442, 42.326909925241992 ] } },
{ "type": "Feature", "properties": { "name_en": "Fletcher" }, "geometry": { "type": "Point", "coordinates": [ -82.294260735925548, 42.292947205786092 ] } },
{ "type": "Feature", "properties": { "name_en": "Kent Centre" }, "geometry": { "type": "Point", "coordinates": [ -82.084766778115409, 42.378334031005494 ] } },
{ "type": "Feature", "properties": { "name_en": "South Buxton" }, "geometry": { "type": "Point", "coordinates": [ -82.18201499947773, 42.274357507724837 ] } },
{ "type": "Feature", "properties": { "name_en": "Quinn" }, "geometry": { "type": "Point", "coordinates": [ -82.386170058287789, 42.220974588494649 ] } },
{ "type": "Feature", "properties": { "name_en": "Richardson" }, "geometry": { "type": "Point", "coordinates": [ -82.123892890645621, 42.382508229915665 ] } },
{ "type": "Feature", "properties": { "name_en": "Woodstock" }, "geometry": { "type": "Point", "coordinates": [ -80.747046223088958, 43.131538427983365 ] } },
{ "type": "Feature", "properties": { "name_en": "Oxford Centre" }, "geometry": { "type": "Point", "coordinates": [ -80.682684699903092, 43.098390225038514 ] } },
{ "type": "Feature", "properties": { "name_en": "Perrys Lane" }, "geometry": { "type": "Point", "coordinates": [ -80.770365832008693, 43.149559430115019 ] } },
{ "type": "Feature", "properties": { "name_en": "Forest Estates" }, "geometry": { "type": "Point", "coordinates": [ -80.651148397201069, 43.183323341606219 ] } },
{ "type": "Feature", "properties": { "name_en": "Willow Lake" }, "geometry": { "type": "Point", "coordinates": [ -80.781413337411166, 43.171753033551006 ] } },
{ "type": "Feature", "properties": { "name_en": "Tollgate" }, "geometry": { "type": "Point", "coordinates": [ -80.774207533889822, 43.15731053131617 ] } },
{ "type": "Feature", "properties": { "name_en": "Cassel" }, "geometry": { "type": "Point", "coordinates": [ -80.764315541481935, 43.281470853810681 ] } },
{ "type": "Feature", "properties": { "name_en": "Bond's Corners" }, "geometry": { "type": "Point", "coordinates": [ -80.699395908611947, 43.138406331397626 ] } },
{ "type": "Feature", "properties": { "name_en": "Innerkip" }, "geometry": { "type": "Point", "coordinates": [ -80.696500613855846, 43.210112644281011 ] } },
{ "type": "Feature", "properties": { "name_en": "Willow Grove" }, "geometry": { "type": "Point", "coordinates": [ -81.157781586612487, 43.516119576807078 ] } },
{ "type": "Feature", "properties": { "name_en": "Brown's Corners" }, "geometry": { "type": "Point", "coordinates": [ -81.088723735293073, 43.181188420971324 ] } },
{ "type": "Feature", "properties": { "name_en": "Dorland" }, "geometry": { "type": "Point", "coordinates": [ -80.793163635937034, 43.111418422278547 ] } },
{ "type": "Feature", "properties": { "name_en": "Mount Pleasant" }, "geometry": { "type": "Point", "coordinates": [ -81.273614910456672, 43.372508446097413 ] } },
{ "type": "Feature", "properties": { "name_en": "Slabtown" }, "geometry": { "type": "Point", "coordinates": [ -81.217893811944819, 43.586738486343762 ] } },
{ "type": "Feature", "properties": { "name_en": "Brandy Point" }, "geometry": { "type": "Point", "coordinates": [ -81.224646400683923, 43.436662559694575 ] } },
{ "type": "Feature", "properties": { "name_en": "Kennicott" }, "geometry": { "type": "Point", "coordinates": [ -81.124221479500392, 43.55546998529416 ] } },
{ "type": "Feature", "properties": { "name_en": "Harmony" }, "geometry": { "type": "Point", "coordinates": [ -80.951043703510578, 43.315408451147668 ] } },
{ "type": "Feature", "properties": { "name_en": "Stratford" }, "geometry": { "type": "Point", "coordinates": [ -80.983204218600264, 43.371557659563976 ] } },
{ "type": "Feature", "properties": { "name_en": "Avonton" }, "geometry": { "type": "Point", "coordinates": [ -81.087362349928966, 43.353308851470743 ] } },
{ "type": "Feature", "properties": { "name_en": "Russeldale" }, "geometry": { "type": "Point", "coordinates": [ -81.261027307680081, 43.386017049069132 ] } },
{ "type": "Feature", "properties": { "name_en": "Gads Hill Station" }, "geometry": { "type": "Point", "coordinates": [ -80.938431112339245, 43.46146567750467 ] } },
{ "type": "Feature", "properties": { "name_en": "Belton" }, "geometry": { "type": "Point", "coordinates": [ -81.139819350941039, 43.175775317627696 ] } },
{ "type": "Feature", "properties": { "name_en": "Rannoch" }, "geometry": { "type": "Point", "coordinates": [ -81.190342673744098, 43.254250429152215 ] } },
{ "type": "Feature", "properties": { "name_en": "Wellburn" }, "geometry": { "type": "Point", "coordinates": [ -81.149022455401479, 43.193627120360361 ] } },
{ "type": "Feature", "properties": { "name_en": "Shakespeare" }, "geometry": { "type": "Point", "coordinates": [ -80.837031072172039, 43.36962816603593 ] } },
{ "type": "Feature", "properties": { "name_en": "Cody's Corners" }, "geometry": { "type": "Point", "coordinates": [ -80.885057365988487, 43.123319620154298 ] } },
{ "type": "Feature", "properties": { "name_en": "Uniondale" }, "geometry": { "type": "Point", "coordinates": [ -81.069588632405541, 43.217359628272341 ] } },
{ "type": "Feature", "properties": { "name_en": "St. Marys Junction" }, "geometry": { "type": "Point", "coordinates": [ -81.133165857219126, 43.271593134896342 ] } },
{ "type": "Feature", "properties": { "name_en": "Brunner" }, "geometry": { "type": "Point", "coordinates": [ -80.921530412151526, 43.519979788590682 ] } },
{ "type": "Feature", "properties": { "name_en": "Prospect Hill" }, "geometry": { "type": "Point", "coordinates": [ -81.244018586958276, 43.211885819144136 ] } },
{ "type": "Feature", "properties": { "name_en": "Kirkton" }, "geometry": { "type": "Point", "coordinates": [ -81.313403618739756, 43.324256635720992 ] } },
{ "type": "Feature", "properties": { "name_en": "Sebringville" }, "geometry": { "type": "Point", "coordinates": [ -81.059890645934772, 43.40655246214493 ] } },
{ "type": "Feature", "properties": { "name_en": "Kintore" }, "geometry": { "type": "Point", "coordinates": [ -81.030186913156626, 43.138991416210935 ] } },
{ "type": "Feature", "properties": { "name_en": "Embro" }, "geometry": { "type": "Point", "coordinates": [ -80.90052557357734, 43.154655125007665 ] } },
{ "type": "Feature", "properties": { "name_en": "Sebastopol" }, "geometry": { "type": "Point", "coordinates": [ -80.836366668733532, 43.332630859527377 ] } },
{ "type": "Feature", "properties": { "name_en": "Golspie" }, "geometry": { "type": "Point", "coordinates": [ -80.836995652064459, 43.137918924970975 ] } },
{ "type": "Feature", "properties": { "name_en": "Maplewood" }, "geometry": { "type": "Point", "coordinates": [ -80.902398184025813, 43.268355745086161 ] } },
{ "type": "Feature", "properties": { "name_en": "Carmunnock" }, "geometry": { "type": "Point", "coordinates": [ -81.147358792059691, 43.614000994455644 ] } },
{ "type": "Feature", "properties": { "name_en": "Brocksden" }, "geometry": { "type": "Point", "coordinates": [ -80.887611289823994, 43.388358266989201 ] } },
{ "type": "Feature", "properties": { "name_en": "Kinkora" }, "geometry": { "type": "Point", "coordinates": [ -81.074072356737005, 43.477978574049793 ] } },
{ "type": "Feature", "properties": { "name_en": "Braemar" }, "geometry": { "type": "Point", "coordinates": [ -80.847587760323179, 43.194845334594682 ] } },
{ "type": "Feature", "properties": { "name_en": "Gads Hill" }, "geometry": { "type": "Point", "coordinates": [ -80.923156205992086, 43.444321775199249 ] } },
{ "type": "Feature", "properties": { "name_en": "Holiday" }, "geometry": { "type": "Point", "coordinates": [ -80.97014989325848, 43.128004417046881 ] } },
{ "type": "Feature", "properties": { "name_en": "Monkton" }, "geometry": { "type": "Point", "coordinates": [ -81.082159268990722, 43.586949392797322 ] } },
{ "type": "Feature", "properties": { "name_en": "Wartburg" }, "geometry": { "type": "Point", "coordinates": [ -81.03071844126778, 43.458212972609189 ] } },
{ "type": "Feature", "properties": { "name_en": "Plover Mills" }, "geometry": { "type": "Point", "coordinates": [ -81.197116566407587, 43.145952909664892 ] } },
{ "type": "Feature", "properties": { "name_en": "Zorra Station" }, "geometry": { "type": "Point", "coordinates": [ -80.89152826597838, 43.099474815614037 ] } },
{ "type": "Feature", "properties": { "name_en": "Science Hill" }, "geometry": { "type": "Point", "coordinates": [ -81.198337079913415, 43.295743236106652 ] } },
{ "type": "Feature", "properties": { "name_en": "Medina" }, "geometry": { "type": "Point", "coordinates": [ -81.056578626023125, 43.191237124250719 ] } },
{ "type": "Feature", "properties": { "name_en": "Cherry Grove" }, "geometry": { "type": "Point", "coordinates": [ -81.180443564451522, 43.183775917146527 ] } },
{ "type": "Feature", "properties": { "name_en": "Southgate" }, "geometry": { "type": "Point", "coordinates": [ -81.366076417820338, 43.125243298077315 ] } },
{ "type": "Feature", "properties": { "name_en": "Conroy" }, "geometry": { "type": "Point", "coordinates": [ -81.048825132439418, 43.292791842587675 ] } },
{ "type": "Feature", "properties": { "name_en": "Lakeside" }, "geometry": { "type": "Point", "coordinates": [ -81.025167917036072, 43.20191332760588 ] } },
{ "type": "Feature", "properties": { "name_en": "St. Marys" }, "geometry": { "type": "Point", "coordinates": [ -81.137010957413437, 43.25996183266021 ] } },
{ "type": "Feature", "properties": { "name_en": "Bornholm" }, "geometry": { "type": "Point", "coordinates": [ -81.144540783798121, 43.531548980139462 ] } },
{ "type": "Feature", "properties": { "name_en": "St. Ives" }, "geometry": { "type": "Point", "coordinates": [ -81.167167757985567, 43.157648913137777 ] } },
{ "type": "Feature", "properties": { "name_en": "St. Pauls Station" }, "geometry": { "type": "Point", "coordinates": [ -81.057290237352277, 43.318329446704134 ] } },
{ "type": "Feature", "properties": { "name_en": "Tavistock" }, "geometry": { "type": "Point", "coordinates": [ -80.83622606767284, 43.320966957470894 ] } },
{ "type": "Feature", "properties": { "name_en": "Fullarton" }, "geometry": { "type": "Point", "coordinates": [ -81.221961695696422, 43.390009051613625 ] } },
{ "type": "Feature", "properties": { "name_en": "Lind" }, "geometry": { "type": "Point", "coordinates": [ -81.152101760985573, 43.246368929550307 ] } },
{ "type": "Feature", "properties": { "name_en": "Hickson" }, "geometry": { "type": "Point", "coordinates": [ -80.81376515317703, 43.235860443437211 ] } },
{ "type": "Feature", "properties": { "name_en": "Devizes" }, "geometry": { "type": "Point", "coordinates": [ -81.227501578012962, 43.169181712359453 ] } },
{ "type": "Feature", "properties": { "name_en": "Brooksdale" }, "geometry": { "type": "Point", "coordinates": [ -80.936679791335095, 43.227788436307044 ] } },
{ "type": "Feature", "properties": { "name_en": "Huntingford" }, "geometry": { "type": "Point", "coordinates": [ -80.794913143973218, 43.198354637653161 ] } },
{ "type": "Feature", "properties": { "name_en": "Rostock" }, "geometry": { "type": "Point", "coordinates": [ -81.003902235627351, 43.490411879531123 ] } },
{ "type": "Feature", "properties": { "name_en": "Cobble Hill" }, "geometry": { "type": "Point", "coordinates": [ -81.093143031362814, 43.119923509897212 ] } },
{ "type": "Feature", "properties": { "name_en": "Youngsville" }, "geometry": { "type": "Point", "coordinates": [ -80.923611684931956, 43.20158743226829 ] } },
{ "type": "Feature", "properties": { "name_en": "Birr" }, "geometry": { "type": "Point", "coordinates": [ -81.331667106655246, 43.121444699019683 ] } },
{ "type": "Feature", "properties": { "name_en": "Motherwell" }, "geometry": { "type": "Point", "coordinates": [ -81.190202381682653, 43.344961145172014 ] } },
{ "type": "Feature", "properties": { "name_en": "Oliver" }, "geometry": { "type": "Point", "coordinates": [ -81.090561233227533, 43.150778015493195 ] } },
{ "type": "Feature", "properties": { "name_en": "Elginfield" }, "geometry": { "type": "Point", "coordinates": [ -81.356014518271323, 43.166530805860177 ] } },
{ "type": "Feature", "properties": { "name_en": "Granton" }, "geometry": { "type": "Point", "coordinates": [ -81.301375205575127, 43.217985617529521 ] } },
{ "type": "Feature", "properties": { "name_en": "Thorndale" }, "geometry": { "type": "Point", "coordinates": [ -81.140289744968115, 43.105410605124511 ] } },
{ "type": "Feature", "properties": { "name_en": "Metropolitan" }, "geometry": { "type": "Point", "coordinates": [ -81.283427304273786, 43.267507727122563 ] } },
{ "type": "Feature", "properties": { "name_en": "Fairview" }, "geometry": { "type": "Point", "coordinates": [ -80.964492004849703, 43.282053444622328 ] } },
{ "type": "Feature", "properties": { "name_en": "Strathallan" }, "geometry": { "type": "Point", "coordinates": [ -80.807871950291798, 43.224056041615889 ] } },
{ "type": "Feature", "properties": { "name_en": "Harrington" }, "geometry": { "type": "Point", "coordinates": [ -80.994082010647276, 43.241300836031122 ] } },
{ "type": "Feature", "properties": { "name_en": "Carlingford" }, "geometry": { "type": "Point", "coordinates": [ -81.152087172969956, 43.382647353605371 ] } },
{ "type": "Feature", "properties": { "name_en": "Anderson" }, "geometry": { "type": "Point", "coordinates": [ -81.243977496024769, 43.315106737378379 ] } },
{ "type": "Feature", "properties": { "name_en": "Avonbank" }, "geometry": { "type": "Point", "coordinates": [ -81.129404461063686, 43.328886145190957 ] } },
{ "type": "Feature", "properties": { "name_en": "Friendly Corners" }, "geometry": { "type": "Point", "coordinates": [ -81.137811646885766, 43.136473410752984 ] } },
{ "type": "Feature", "properties": { "name_en": "Mitchell" }, "geometry": { "type": "Point", "coordinates": [ -81.197937895038095, 43.468110866481894 ] } },
{ "type": "Feature", "properties": { "name_en": "Munro" }, "geometry": { "type": "Point", "coordinates": [ -81.238067903521923, 43.420873656284968 ] } },
{ "type": "Feature", "properties": { "name_en": "Kuhryville" }, "geometry": { "type": "Point", "coordinates": [ -81.034634248522224, 43.526101784359874 ] } },
{ "type": "Feature", "properties": { "name_en": "Bennington" }, "geometry": { "type": "Point", "coordinates": [ -80.95546829421373, 43.192572029190444 ] } },
{ "type": "Feature", "properties": { "name_en": "Woodham" }, "geometry": { "type": "Point", "coordinates": [ -81.32666772151083, 43.308286232280224 ] } },
{ "type": "Feature", "properties": { "name_en": "Moserville" }, "geometry": { "type": "Point", "coordinates": [ -80.969162325215081, 43.497066782330393 ] } },
{ "type": "Feature", "properties": { "name_en": "Maple Grove" }, "geometry": { "type": "Point", "coordinates": [ -81.294304099471844, 43.173824910049937 ] } },
{ "type": "Feature", "properties": { "name_en": "Bryanston" }, "geometry": { "type": "Point", "coordinates": [ -81.268915487255512, 43.12559140269606 ] } },
{ "type": "Feature", "properties": { "name_en": "Flannigan Corners" }, "geometry": { "type": "Point", "coordinates": [ -80.961894008602513, 43.334396153997396 ] } },
{ "type": "Feature", "properties": { "name_en": "Salmonville" }, "geometry": { "type": "Point", "coordinates": [ -81.201114865262312, 43.118341804581505 ] } },
{ "type": "Feature", "properties": { "name_en": "Comber" }, "geometry": { "type": "Point", "coordinates": [ -82.553012110584007, 42.227877581839515 ] } },
{ "type": "Feature", "properties": { "name_en": "The Gore" }, "geometry": { "type": "Point", "coordinates": [ -81.165559342152591, 42.98084168179512 ] } },
{ "type": "Feature", "properties": { "name_en": "Huron Heights" }, "geometry": { "type": "Point", "coordinates": [ -81.205403758037548, 43.019528386827737 ] } },
{ "type": "Feature", "properties": { "name_en": "Oxford Park" }, "geometry": { "type": "Point", "coordinates": [ -81.271093075864002, 42.98662677791193 ] } },
{ "type": "Feature", "properties": { "name_en": "Medway Heights" }, "geometry": { "type": "Point", "coordinates": [ -81.291262084298012, 43.010736881259326 ] } },
{ "type": "Feature", "properties": { "name_en": "Westmount" }, "geometry": { "type": "Point", "coordinates": [ -81.292781579543274, 42.950286170430864 ] } },
{ "type": "Feature", "properties": { "name_en": "Pottersburg" }, "geometry": { "type": "Point", "coordinates": [ -81.17730264716397, 42.996078383962555 ] } },
{ "type": "Feature", "properties": { "name_en": "Glendale" }, "geometry": { "type": "Point", "coordinates": [ -81.258337067967986, 42.941674970501623 ] } },
{ "type": "Feature", "properties": { "name_en": "Centreville" }, "geometry": { "type": "Point", "coordinates": [ -80.858892551975089, 43.056397309450688 ] } },
{ "type": "Feature", "properties": { "name_en": "Dorchester" }, "geometry": { "type": "Point", "coordinates": [ -81.058568209127856, 42.988626388146066 ] } },
{ "type": "Feature", "properties": { "name_en": "Three Bridges" }, "geometry": { "type": "Point", "coordinates": [ -81.054459512337075, 43.040951497656209 ] } },
{ "type": "Feature", "properties": { "name_en": "Kensal Park" }, "geometry": { "type": "Point", "coordinates": [ -81.279082276699171, 42.967227174086297 ] } },
{ "type": "Feature", "properties": { "name_en": "Crumlin" }, "geometry": { "type": "Point", "coordinates": [ -81.147806639281512, 43.012357188232023 ] } },
{ "type": "Feature", "properties": { "name_en": "Salford" }, "geometry": { "type": "Point", "coordinates": [ -80.827449037016748, 42.997542500402204 ] } },
{ "type": "Feature", "properties": { "name_en": "Ilderton" }, "geometry": { "type": "Point", "coordinates": [ -81.375272216860566, 43.081173389834305 ] } },
{ "type": "Feature", "properties": { "name_en": "Dunn's Corner" }, "geometry": { "type": "Point", "coordinates": [ -80.893146264618508, 43.077723811668235 ] } },
{ "type": "Feature", "properties": { "name_en": "Manor Park" }, "geometry": { "type": "Point", "coordinates": [ -81.267291272770606, 42.96468327418296 ] } },
{ "type": "Feature", "properties": { "name_en": "London" }, "geometry": { "type": "Point", "coordinates": [ -81.248497768299146, 42.981354378026865 ] } },
{ "type": "Feature", "properties": { "name_en": "Byron" }, "geometry": { "type": "Point", "coordinates": [ -81.341067295234694, 42.956184469227885 ] } },
{ "type": "Feature", "properties": { "name_en": "Oakridge Acres" }, "geometry": { "type": "Point", "coordinates": [ -81.307105586003871, 42.972906273789931 ] } },
{ "type": "Feature", "properties": { "name_en": "Fanshawe" }, "geometry": { "type": "Point", "coordinates": [ -81.227008266888589, 43.043183390026719 ] } },
{ "type": "Feature", "properties": { "name_en": "Banner" }, "geometry": { "type": "Point", "coordinates": [ -80.98559998778245, 43.00785209494957 ] } },
{ "type": "Feature", "properties": { "name_en": "Ingersoll" }, "geometry": { "type": "Point", "coordinates": [ -80.882114057704385, 43.037733605053987 ] } },
{ "type": "Feature", "properties": { "name_en": "Verschoyle" }, "geometry": { "type": "Point", "coordinates": [ -80.862948343976356, 42.947820989889834 ] } },
{ "type": "Feature", "properties": { "name_en": "Cleardale" }, "geometry": { "type": "Point", "coordinates": [ -81.253128467910159, 42.959988774006803 ] } },
{ "type": "Feature", "properties": { "name_en": "Sharon" }, "geometry": { "type": "Point", "coordinates": [ -81.351462493086643, 42.893521857579174 ] } },
{ "type": "Feature", "properties": { "name_en": "Nelson Park" }, "geometry": { "type": "Point", "coordinates": [ -81.164705043197216, 42.996071884547206 ] } },
{ "type": "Feature", "properties": { "name_en": "Pond Mills" }, "geometry": { "type": "Point", "coordinates": [ -81.194288348978503, 42.955124075877812 ] } },
{ "type": "Feature", "properties": { "name_en": "Northdale" }, "geometry": { "type": "Point", "coordinates": [ -81.260574076864799, 43.036375387250111 ] } },
{ "type": "Feature", "properties": { "name_en": "Thamesford" }, "geometry": { "type": "Point", "coordinates": [ -80.996188195520702, 43.059014003571932 ] } },
{ "type": "Feature", "properties": { "name_en": "University Heights" }, "geometry": { "type": "Point", "coordinates": [ -81.286454381651282, 42.997652279156824 ] } },
{ "type": "Feature", "properties": { "name_en": "Southdale" }, "geometry": { "type": "Point", "coordinates": [ -81.241403663054655, 42.94645897214231 ] } },
{ "type": "Feature", "properties": { "name_en": "Brockley" }, "geometry": { "type": "Point", "coordinates": [ -81.194127245513897, 42.915445868810153 ] } },
{ "type": "Feature", "properties": { "name_en": "Scottsville" }, "geometry": { "type": "Point", "coordinates": [ -81.28958497297026, 42.88570655906755 ] } },
{ "type": "Feature", "properties": { "name_en": "White Hills" }, "geometry": { "type": "Point", "coordinates": [ -81.315749392165316, 43.0126228804505 ] } },
{ "type": "Feature", "properties": { "name_en": "Calamity Corners" }, "geometry": { "type": "Point", "coordinates": [ -81.282598882967633, 43.026823184523785 ] } },
{ "type": "Feature", "properties": { "name_en": "Arva" }, "geometry": { "type": "Point", "coordinates": [ -81.294891088891376, 43.050483988153168 ] } },
{ "type": "Feature", "properties": { "name_en": "Glen Cairn Woods" }, "geometry": { "type": "Point", "coordinates": [ -81.200552151506855, 42.961590976738961 ] } },
{ "type": "Feature", "properties": { "name_en": "Rayside" }, "geometry": { "type": "Point", "coordinates": [ -80.919114173274153, 43.083063011418581 ] } },
{ "type": "Feature", "properties": { "name_en": "Lambeth" }, "geometry": { "type": "Point", "coordinates": [ -81.300144778351196, 42.909649962846458 ] } },
{ "type": "Feature", "properties": { "name_en": "Nilestown" }, "geometry": { "type": "Point", "coordinates": [ -81.110594124153735, 42.972794782913006 ] } },
{ "type": "Feature", "properties": { "name_en": "Fairmont" }, "geometry": { "type": "Point", "coordinates": [ -81.191713450551774, 42.982769780922581 ] } },
{ "type": "Feature", "properties": { "name_en": "Broughdale" }, "geometry": { "type": "Point", "coordinates": [ -81.258472173553031, 43.005802881912359 ] } },
{ "type": "Feature", "properties": { "name_en": "Uplands" }, "geometry": { "type": "Point", "coordinates": [ -81.287800385459605, 43.03667238603105 ] } },
{ "type": "Feature", "properties": { "name_en": "White Oak" }, "geometry": { "type": "Point", "coordinates": [ -81.244212660893382, 42.911114465710519 ] } },
{ "type": "Feature", "properties": { "name_en": "Putnam" }, "geometry": { "type": "Point", "coordinates": [ -80.953985276325255, 42.990476093311848 ] } },
{ "type": "Feature", "properties": { "name_en": "Trafalgar Heights" }, "geometry": { "type": "Point", "coordinates": [ -81.160400241548629, 42.992673184142134 ] } },
{ "type": "Feature", "properties": { "name_en": "Wilton Grove" }, "geometry": { "type": "Point", "coordinates": [ -81.208241851591865, 42.934490171551182 ] } },
{ "type": "Feature", "properties": { "name_en": "Ballymote" }, "geometry": { "type": "Point", "coordinates": [ -81.239444472845719, 43.066701593624735 ] } },
{ "type": "Feature", "properties": { "name_en": "Southwold" }, "geometry": { "type": "Point", "coordinates": [ -81.364829089945133, 42.808232741732446 ] } },
{ "type": "Feature", "properties": { "name_en": "Ettrick" }, "geometry": { "type": "Point", "coordinates": [ -81.350778905072374, 43.034344882671384 ] } },
{ "type": "Feature", "properties": { "name_en": "Chelsea Green" }, "geometry": { "type": "Point", "coordinates": [ -81.216464457180763, 42.969321877376004 ] } },
{ "type": "Feature", "properties": { "name_en": "Orchard Park" }, "geometry": { "type": "Point", "coordinates": [ -81.297122285052438, 42.998173878751501 ] } },
{ "type": "Feature", "properties": { "name_en": "Berkshire Village" }, "geometry": { "type": "Point", "coordinates": [ -81.288545079027202, 42.959730172310231 ] } },
{ "type": "Feature", "properties": { "name_en": "Crampton" }, "geometry": { "type": "Point", "coordinates": [ -80.942550568815633, 42.944813285688916 ] } },
{ "type": "Feature", "properties": { "name_en": "Foldens" }, "geometry": { "type": "Point", "coordinates": [ -80.80317913267649, 43.036422908455542 ] } },
{ "type": "Feature", "properties": { "name_en": "Dicksons Corners" }, "geometry": { "type": "Point", "coordinates": [ -80.950506880005335, 43.046152503396016 ] } },
{ "type": "Feature", "properties": { "name_en": "Southcrest Estates" }, "geometry": { "type": "Point", "coordinates": [ -81.271350473505095, 42.958406372876006 ] } },
{ "type": "Feature", "properties": { "name_en": "Oakridge Park" }, "geometry": { "type": "Point", "coordinates": [ -81.329630293289753, 42.975246873154617 ] } },
{ "type": "Feature", "properties": { "name_en": "Stoneybrook" }, "geometry": { "type": "Point", "coordinates": [ -81.244791371785936, 43.035098087759849 ] } },
{ "type": "Feature", "properties": { "name_en": "Northcrest" }, "geometry": { "type": "Point", "coordinates": [ -81.273265880578961, 43.033143486083013 ] } },
{ "type": "Feature", "properties": { "name_en": "Masonville" }, "geometry": { "type": "Point", "coordinates": [ -81.28748698397311, 43.020685283204386 ] } },
{ "type": "Feature", "properties": { "name_en": "The Grove" }, "geometry": { "type": "Point", "coordinates": [ -81.187689353189214, 43.027956589151962 ] } },
{ "type": "Feature", "properties": { "name_en": "Sherwood Forest" }, "geometry": { "type": "Point", "coordinates": [ -81.298839186208809, 43.005282379935544 ] } },
{ "type": "Feature", "properties": { "name_en": "Hyde Park" }, "geometry": { "type": "Point", "coordinates": [ -81.332169696129071, 42.998783777222471 ] } },
{ "type": "Feature", "properties": { "name_en": "Mossley" }, "geometry": { "type": "Point", "coordinates": [ -81.011832290764829, 42.946195482739306 ] } },
{ "type": "Feature", "properties": { "name_en": "Mount Elgin" }, "geometry": { "type": "Point", "coordinates": [ -80.792475022656873, 42.958522495038423 ] } },
{ "type": "Feature", "properties": { "name_en": "Beachville" }, "geometry": { "type": "Point", "coordinates": [ -80.829380945595588, 43.09065371691274 ] } },
{ "type": "Feature", "properties": { "name_en": "Derwent" }, "geometry": { "type": "Point", "coordinates": [ -81.098343716132007, 42.924288374828507 ] } },
{ "type": "Feature", "properties": { "name_en": "Hagles Corners" }, "geometry": { "type": "Point", "coordinates": [ -80.8358369410129, 43.013341702835952 ] } },
{ "type": "Feature", "properties": { "name_en": "Evelyn" }, "geometry": { "type": "Point", "coordinates": [ -81.082573723072599, 43.062658400213117 ] } },
{ "type": "Feature", "properties": { "name_en": "Riverside" }, "geometry": { "type": "Point", "coordinates": [ -81.532503839372154, 42.771397227331256 ] } },
{ "type": "Feature", "properties": { "name_en": "Melrose" }, "geometry": { "type": "Point", "coordinates": [ -81.397923816828978, 42.999068374195751 ] } },
{ "type": "Feature", "properties": { "name_en": "Melbourne" }, "geometry": { "type": "Point", "coordinates": [ -81.552483849552402, 42.816808334503314 ] } },
{ "type": "Feature", "properties": { "name_en": "Mayfair" }, "geometry": { "type": "Point", "coordinates": [ -81.585401057578366, 42.790277028227436 ] } },
{ "type": "Feature", "properties": { "name_en": "Largie" }, "geometry": { "type": "Point", "coordinates": [ -81.562936342385925, 42.69552681234363 ] } },
{ "type": "Feature", "properties": { "name_en": "Glencoe" }, "geometry": { "type": "Point", "coordinates": [ -81.708950392481512, 42.746417614603509 ] } },
{ "type": "Feature", "properties": { "name_en": "Middlemiss" }, "geometry": { "type": "Point", "coordinates": [ -81.490525826124909, 42.770374229109066 ] } },
{ "type": "Feature", "properties": { "name_en": "Komoka" }, "geometry": { "type": "Point", "coordinates": [ -81.437296424897525, 42.949526263542076 ] } },
{ "type": "Feature", "properties": { "name_en": "Tate Corners" }, "geometry": { "type": "Point", "coordinates": [ -81.630189365437317, 42.718720913348726 ] } },
{ "type": "Feature", "properties": { "name_en": "Lawrence Station" }, "geometry": { "type": "Point", "coordinates": [ -81.414836001151642, 42.755949630057543 ] } },
{ "type": "Feature", "properties": { "name_en": "Appin" }, "geometry": { "type": "Point", "coordinates": [ -81.650678178545064, 42.796230526228371 ] } },
{ "type": "Feature", "properties": { "name_en": "Delaware" }, "geometry": { "type": "Point", "coordinates": [ -81.421606316463411, 42.909075857075557 ] } },
{ "type": "Feature", "properties": { "name_en": "Longwood" }, "geometry": { "type": "Point", "coordinates": [ -81.583586661316389, 42.84007313719399 ] } },
{ "type": "Feature", "properties": { "name_en": "Delaware West" }, "geometry": { "type": "Point", "coordinates": [ -81.427553717887562, 42.903949455884259 ] } },
{ "type": "Feature", "properties": { "name_en": "Strathburn" }, "geometry": { "type": "Point", "coordinates": [ -81.674079779267856, 42.71978281148251 ] } },
{ "type": "Feature", "properties": { "name_en": "Ekfrid" }, "geometry": { "type": "Point", "coordinates": [ -81.6016760600358, 42.759664721999634 ] } },
{ "type": "Feature", "properties": { "name_en": "Christina" }, "geometry": { "type": "Point", "coordinates": [ -81.488663833513229, 42.862827145697416 ] } },
{ "type": "Feature", "properties": { "name_en": "Komoka Station" }, "geometry": { "type": "Point", "coordinates": [ -81.449023229331473, 42.958164464529141 ] } },
{ "type": "Feature", "properties": { "name_en": "Lewis Corners" }, "geometry": { "type": "Point", "coordinates": [ -81.612864764279351, 42.768226123004453 ] } },
{ "type": "Feature", "properties": { "name_en": "Kilworth" }, "geometry": { "type": "Point", "coordinates": [ -81.381915908840398, 42.965021368891151 ] } },
{ "type": "Feature", "properties": { "name_en": "Mount Brydges" }, "geometry": { "type": "Point", "coordinates": [ -81.495837439826104, 42.909718953714709 ] } },
{ "type": "Feature", "properties": { "name_en": "Woodgreen" }, "geometry": { "type": "Point", "coordinates": [ -81.714370689077839, 42.687331103792872 ] } },
{ "type": "Feature", "properties": { "name_en": "Muncey" }, "geometry": { "type": "Point", "coordinates": [ -81.440304614656682, 42.820152640344325 ] } },
{ "type": "Feature", "properties": { "name_en": "Lobo Siding" }, "geometry": { "type": "Point", "coordinates": [ -81.38595331138022, 42.97966587130702 ] } },
{ "type": "Feature", "properties": { "name_en": "Campbellton" }, "geometry": { "type": "Point", "coordinates": [ -81.584379947837476, 42.680804608707419 ] } },
{ "type": "Feature", "properties": { "name_en": "Thames River Siding" }, "geometry": { "type": "Point", "coordinates": [ -81.454546914165846, 42.762483729376633 ] } }
]
}
